[{"OBJECT_NAME":"STARLINK-2469","OBJECT_ID":"2021-027AN","EPOCH":"2026-03-09T09:17:04.188192","MEAN_MOTION":15.1882832,"ECCENTRICITY":0.0001315,"INCLINATION":53.1065,"RA_OF_ASC_NODE":102.3811,"ARG_OF_PERICENTER":92.2024,"MEAN_ANOMALY":267.9122,"EPHEMERIS_TYPE":0,"CLASSIFICATION_TYPE":"U","NORAD_CAT_ID":48128,"ELEMENT_SET_NO":999,"REV_AT_EPOCH":27335,"BSTAR":0.0010578489,"MEAN_MOTION_DOT":0.00022048,"MEAN_MOTION_DDOT":0},{"OBJECT_NAME":"TRANSPORTER-15 OBJECT CJ","OBJECT_ID":"2025-276CJ","EPOCH":"2026-03-09T17:19:57.485568","MEAN_MOTION":15.21041958,"ECCENTRICITY":0.00108056,"INCLINATION":97.3697,"RA_OF_ASC_NODE":143.6602,"ARG_OF_PERICENTER":305.0415,"MEAN_ANOMALY":54.9807,"EPHEMERIS_TYPE":0,"CLASSIFICATION_TYPE":"U","NORAD_CAT_ID":66746,"ELEMENT_SET_NO":999,"REV_AT_EPOCH":1533,"BSTAR":0.00077607464,"MEAN_MOTION_DOT":0.00017213,"MEAN_MOTION_DDOT":0}]
